[Satellite]
VERSION=1.1
NAME=COSMO-SKYMED 1
NICKNAME=COSMO-SKYMED 1
TLE1=1 31598U 07023A   22342.51161366  .00000209  00000+0  32764-4 0  9996
TLE2=2 31598  97.8861 163.7042 0001394  86.1466 273.9907 14.82151971838744
STATUS=0
